KKS-1 (KISEKI)          
1 33499U 09002H   26131.48625705  .00000822  00000+0  10795-3 0  9995
2 33499  98.1194  53.3495 0009113  55.3228 304.8843 14.83026449930755
UK-DMC 2                
1 35683U 09041C   26131.55037723  .00000974  00000+0  14874-3 0  9990
2 35683  97.8778 267.4250 0001689  81.8128 278.3273 14.75971495901162
OCEANSAT-2              
1 35931U 09051A   26131.52720226  .00000026  00000+0  43347-4 0  9997
2 35931  98.2298 122.0424 0015248 344.8342  15.2365 13.99648061874204
SWISSCUBE               
1 35932U 09051B   26131.22229604  .00000628  00000+0  13391-3 0  9992
2 35932  98.4059  38.4650 0006332 339.6318  20.4629 14.62408237883753
BEESAT-1                
1 35933U 09051C   26131.48647191  .00000510  00000+0  11231-3 0  9997
2 35933  98.3987  38.4455 0005156 356.8810   3.2357 14.61658653883820
ITUPSAT1                
1 35935U 09051E   26130.69163038  .00000508  00000+0  11516-3 0  9997
2 35935  98.4072  36.8697 0007623   5.6146 354.5137 14.60382828883263
DMSP 5D-3 F18 (USA 210) 
1 35951U 09057A   26131.50994635  .00000202  00000+0  12764-3 0  9994
2 35951  98.9025 112.3630 0011140   1.7113 358.4097 14.14875360854400
PROBA-2                 
1 36037U 09059B   26131.44536808  .00000116  00000+0  37614-4 0  9995
2 36037  98.2450 315.3084 0014035  38.9444 321.2761 14.54846495876180
YAOGAN-7                
1 36110U 09069A   26131.39509602  .00000253  00000+0  42232-4 0  9998
2 36110  98.0116  17.4817 0025112 154.9793 205.2640 14.77972059884195
XIWANG-1 (HOPE-1)       
1 36122U 09072B   26131.53630977  .00000357  00000+0  10520-2 0  9999
2 36122 100.4002  85.9581 0007154 322.3285  37.7326 13.16439417788180
COSMOS 2463             
1 36519U 10017A   26131.41949747  .00000053  00000+0  42044-4 0  9996
2 36519  82.9584 276.7225 0035136 230.6674 159.5724 13.71663186802891
CARTOSAT-2B             
1 36795U 10035A   26131.45901280  .00000642  00000+0  94858-4 0  9990
2 36795  97.9981 182.2381 0010412 315.3481  44.6890 14.78615885854420
TISAT 1                 
1 36799U 10035E   26131.38463647  .00013280  00000+0  45560-3 0  9993
2 36799  98.0690  74.7177 0003667  55.9928 304.1659 15.30302000862076
YAOGAN-10               
1 36834U 10038A   26131.51840780  .00001699  00000+0  20434-3 0  9992
2 36834  97.9006 155.2145 0001479  91.5881  63.8796 14.85235983851767
SHIJIAN-6 04B (SJ-6 04B)
1 37180U 10051B   26131.51612795  .00000111  00000+0  14177-4 0  9991
2 37180  97.8740 136.5532 0012813  69.8138 290.4461 14.99261081850180
FENGYUN 3B              
1 37214U 10059A   26131.54474221  .00000206  00000+0  12979-3 0  9992
2 37214  98.9651 177.3986 0021063 292.0565 204.2799 14.14833862802248
COSMO-SKYMED 4          
1 37216U 10060A   26131.51550076 -.00000286  00000+0 -29342-4 0  9999
2 37216  97.8892 315.6469 0001345  81.6649 278.4717 14.82151092839138
O/OREOS (USA 219)       
1 37224U 10062C   26131.36071963  .00001148  00000+0  11467-3 0  9990
2 37224  71.9685 163.7463 0013153 143.2175 216.9901 14.93588526111149
RESOURCESAT-2           
1 37387U 11015A   26131.49004750  .00000053  00000+0  44148-4 0  9990
2 37387  98.7655 199.1818 0011292   9.6419 350.4973 14.21603986780962
YOUTHSAT                
1 37388U 11015B   26131.39958044  .00000132  00000+0  73015-4 0  9997
2 37388  98.3665 107.1178 0015758  89.8833  74.5956 14.25614359782393
APRIZESAT 6             
1 37793U 11044F   26131.51662527  .00000361  00000+0  58585-4 0  9990
2 37793  98.2385  41.2651 0042555 201.6567 341.6151 14.76864558791735
JUGNU                   
1 37839U 11058B   26131.44793969  .00000374  00000+0  56089-4 0  9994
2 37839  19.9590 171.6295 0018706  31.2445   0.2544 14.13765611753822
SRMSAT                  
1 37841U 11058D   26131.45623853  .00000370  00000+0  57136-4 0  9992
2 37841  19.9728 281.7985 0011716 159.6311 233.2855 14.11567458752625
SUOMI NPP               
1 37849U 11061A   26131.54671082  .00000029  00000+0  34977-4 0  9990
2 37849  98.7939  72.6769 0002838  76.9440 283.2053 14.19509366753244
YAOGAN-12               
1 37875U 11066B   26131.55316052  .00007112  00000+0  27786-3 0  9997
2 37875  97.1179 171.8510 0009884   7.6160 352.5227 15.26123320806452
BEIDOU-2 M4             
1 38251U 12018B   26128.92300840 -.00000036  00000+0  00000+0 0  9994
2 38251  55.6931 305.4151 0010883 282.3733  77.4996  1.86229854 95211
