OBJECT_NAME,OBJECT_ID,EPOCH,MEAN_MOTION,ECCENTRICITY,INCLINATION,RA_OF_ASC_NODE,ARG_OF_PERICENTER,MEAN_ANOMALY,EPHEMERIS_TYPE,CLASSIFICATION_TYPE,NORAD_CAT_ID,ELEMENT_SET_NO,REV_AT_EPOCH,BSTAR,MEAN_MOTION_DOT,MEAN_MOTION_DDOT
KKS-1 (KISEKI),2009-002H,2026-05-11T11:40:12.609120,14.83026449,.0009113,98.1194,53.3495,55.3228,304.8843,0,U,33499,999,93075,.10795E-3,.822E-5,0
UK-DMC 2,2009-041C,2026-05-11T13:12:32.592672,14.75971495,.0001689,97.8778,267.4250,81.8128,278.3273,0,U,35683,999,90116,.14874E-3,.974E-5,0
OCEANSAT-2,2009-051A,2026-05-11T12:39:10.275264,13.99648061,.0015248,98.2298,122.0424,344.8342,15.2365,0,U,35931,999,87420,.43347E-4,.26E-6,0
SWISSCUBE,2009-051B,2026-05-11T05:20:06.377856,14.62408237,.0006332,98.4059,38.4650,339.6318,20.4629,0,U,35932,999,88375,.13391E-3,.628E-5,0
BEESAT-1,2009-051C,2026-05-11T11:40:31.173024,14.61658653,.0005156,98.3987,38.4455,356.8810,3.2357,0,U,35933,999,88382,.11231E-3,.51E-5,0
ITUPSAT1,2009-051E,2026-05-10T16:35:56.864832,14.60382828,.00076232,98.4072,36.8697,5.6146,354.5137,0,U,35935,999,88326,.11515601E-3,.508E-5,0
DMSP 5D-3 F18 (USA 210),2009-057A,2026-05-11T12:14:19.364640,14.14875360,.001114,98.9025,112.3630,1.7113,358.4097,0,U,35951,999,85440,.12764E-3,.202E-5,0
PROBA-2,2009-059B,2026-05-11T10:41:19.802112,14.54846495,.0014035,98.2450,315.3084,38.9444,321.2761,0,U,36037,999,87618,.37614E-4,.116E-5,0
YAOGAN-7,2009-069A,2026-05-11T09:28:56.296128,14.77972059,.0025112,98.0116,17.4817,154.9793,205.2640,0,U,36110,999,88419,.42232E-4,.253E-5,0
XIWANG-1 (HOPE-1),2009-072B,2026-05-11T12:52:17.164128,13.16439417,.0007154,100.4002,85.9581,322.3285,37.7326,0,U,36122,999,78818,.1052E-2,.357E-5,0
COSMOS 2463,2010-017A,2026-05-11T10:04:04.581408,13.71663186,.0035136,82.9584,276.7225,230.6674,159.5724,0,U,36519,999,80289,.42044E-4,.53E-6,0
CARTOSAT-2B,2010-035A,2026-05-11T11:00:58.705920,14.78615885,.0010412,97.9981,182.2381,315.3481,44.6890,0,U,36795,999,85442,.94858E-4,.642E-5,0
TISAT 1,2010-035E,2026-05-11T09:13:52.591008,15.30302000,.0003667,98.0690,74.7177,55.9928,304.1659,0,U,36799,999,86207,.4556E-3,.1328E-3,0
YAOGAN-10,2010-038A,2026-05-11T12:26:30.433920,14.85235983,.0001479,97.9006,155.2145,91.5881,63.8796,0,U,36834,999,85176,.20434E-3,.1699E-4,0
SHIJIAN-6 04B (SJ-6 04B),2010-051B,2026-05-11T12:23:13.454880,14.99261081,.0012813,97.8740,136.5532,69.8138,290.4461,0,U,37180,999,85018,.14177E-4,.111E-5,0
FENGYUN 3B,2010-059A,2026-05-11T13:04:25.726944,14.14833862,.0021063,98.9651,177.3986,292.0565,204.2799,0,U,37214,999,80224,.12979E-3,.206E-5,0
COSMO-SKYMED 4,2010-060A,2026-05-11T12:22:19.265664,14.82151092,.0001345,97.8892,315.6469,81.6649,278.4717,0,U,37216,999,83913,-.29342E-4,-.286E-5,0
O/OREOS (USA 219),2010-062C,2026-05-11T08:39:26.176032,14.93588526,.0013153,71.9685,163.7463,143.2175,216.9901,0,U,37224,999,11114,.11467E-3,.1148E-4,0
RESOURCESAT-2,2011-015A,2026-05-11T11:45:40.104000,14.21603986,.0011292,98.7655,199.1818,9.6419,350.4973,0,U,37387,999,78096,.44148E-4,.53E-6,0
YOUTHSAT,2011-015B,2026-05-11T09:35:23.750016,14.25614359,.0015758,98.3665,107.1178,89.8833,74.5956,0,U,37388,999,78239,.73015E-4,.132E-5,0
APRIZESAT 6,2011-044F,2026-05-11T12:23:56.423328,14.76864558,.0042555,98.2385,41.2651,201.6567,341.6151,0,U,37793,999,79173,.58585E-4,.361E-5,0
JUGNU,2011-058B,2026-05-11T10:45:01.989216,14.13765611,.0018706,19.9590,171.6295,31.2445,0.2544,0,U,37839,999,75382,.56089E-4,.374E-5,0
SRMSAT,2011-058D,2026-05-11T10:56:59.008992,14.11567458,.0011716,19.9728,281.7985,159.6311,233.2855,0,U,37841,999,75262,.57136E-4,.37E-5,0
SUOMI NPP,2011-061A,2026-05-11T13:07:15.814848,14.19509366,.0002838,98.7939,72.6769,76.9440,283.2053,0,U,37849,999,75324,.34977E-4,.29E-6,0
YAOGAN-12,2011-066B,2026-05-11T13:16:33.068928,15.26123320,.0009884,97.1179,171.8510,7.6160,352.5227,0,U,37875,999,80645,.27786E-3,.7112E-4,0
BEIDOU-2 M4,2012-018B,2026-05-08T22:09:07.925760,1.86229854,.00108839,55.6931,305.4151,282.3733,77.4996,0,U,38251,999,9521,0,-.36E-6,0
